NORAD_CAT_ID,OBJECT_NAME,OBJECT_TYPE,EPOCH,MEAN_MOTION,ECCENTRICITY,INCLINATION,RA_OF_ASC_NODE,ARG_OF_PERICENTER,MEAN_ANOMALY,BSTAR,MEAN_MOTION_DOT,MEAN_MOTION_DDOT,TLE_LINE0,TLE_LINE1,TLE_LINE2,SEMIMAJOR_AXIS,PERIOD,APOGEE,PERIGEE,DECAYED
54053.0,STARLINK-5176,PAYLOAD,2023-08-04 14:42:21,15.08835286,0.0001146,53.2157,280.4133,87.242,272.8704,5.3085e-06,-2.03e-06,0.0,0 STARLINK-5176,1 54053U 22136C   23216.61274761 -.00000203  00000-0  53085-5 0  9991,2 54053  53.2157 280.4133 0001146  87.2420 272.8704 15.08835286 44192,6917.895,95.438,540.553,538.967,0.0
54053.0,STARLINK-5176,PAYLOAD,2023-08-05 09:46:58,15.08850388,0.0001133,53.2152,276.8446,92.2037,267.9085,0.00032834,4.943e-05,0.0,0 STARLINK-5176,1 54053U 22136C   23217.40762310  .00004943  00000-0  32834-3 0  9992,2 54053  53.2152 276.8446 0001133  92.2037 267.9085 15.08850388 44310,6917.849,95.437,540.497,538.93,0.0
54053.0,STARLINK-5176,PAYLOAD,2023-08-06 04:51:36,15.08841324,0.0001029,53.2149,273.2758,90.6578,269.4532,0.0001898,2.734e-05,0.0,0 STARLINK-5176,1 54053U 22136C   23218.20250849  .00002734  00000-0  18980-3 0  9992,2 54053  53.2149 273.2758 0001029  90.6578 269.4532 15.08841324 44436,6917.876,95.437,540.453,539.029,0.0
54053.0,STARLINK-5176,PAYLOAD,2023-08-07 03:07:01,15.08832224,0.0001088,53.2139,269.1117,96.9211,263.1905,8.2638e-05,1.027e-05,0.0,0 STARLINK-5176,1 54053U 22136C   23219.12987435  .00001027  00000-0  82638-4 0  9998,2 54053  53.2139 269.1117 0001088  96.9211 263.1905 15.08832224 44575,6917.904,95.438,540.522,539.016,0.0
54053.0,STARLINK-5176,PAYLOAD,2023-08-08 09:19:20,15.08850706,0.0001063,53.2138,263.4618,93.8636,266.2478,0.00041426,6.313e-05,0.0,0 STARLINK-5176,1 54053U 22136C   23220.38843154  .00006313  00000-0  41426-3 0  9999,2 54053  53.2138 263.4618 0001063  93.8636 266.2478 15.08850706 44762,6917.848,95.437,540.448,538.977,0.0
54053.0,STARLINK-5176,PAYLOAD,2023-08-08 20:27:02,15.08844372,0.0001034,53.2131,261.38,92.1315,267.9796,0.0002189,3.198e-05,0.0,0 STARLINK-5176,1 54053U 22136C   23220.85211309  .00003198  00000-0  21890-3 0  9993,2 54053  53.2131 261.3800 0001034  92.1315 267.9796 15.08844372 44830,6917.867,95.437,540.447,539.017,0.0
54053.0,STARLINK-5176,PAYLOAD,2023-08-09 09:10:07,15.08840075,0.0001093,53.215,259.0023,86.5337,273.578,0.00011599,1.559e-05,0.0,0 STARLINK-5176,1 54053U 22136C   23221.38203606  .00001559  00000-0  11599-3 0  9997,2 54053  53.2150 259.0023 0001093  86.5337 273.5780 15.08840075 44919,6917.88,95.438,540.501,538.989,0.0
54053.0,STARLINK-5176,PAYLOAD,2023-08-10 12:11:40,15.08848948,0.0001249,53.2152,253.9464,92.598,267.5155,0.000128,1.75e-05,0.0,0 STARLINK-5176,1 54053U 22136C   23222.50810930  .00001750  00000-0  12800-3 0  9995,2 54053  53.2152 253.9464 0001249  92.5980 267.5155 15.08848948 45082,6917.853,95.437,540.582,538.854,0.0
54053.0,STARLINK-5176,PAYLOAD,2023-08-11 00:54:46,15.0883919,0.0001267,53.2129,251.5679,83.6293,276.4844,0.00013397,1.845e-05,0.0,0 STARLINK-5176,1 54053U 22136C   23223.03803384  .00001845  00000-0  13397-3 0  9996,2 54053  53.2129 251.5679 0001267  83.6293 276.4844 15.08839190 45168,6917.883,95.438,540.624,538.871,0.0
54053.0,STARLINK-5176,PAYLOAD,2023-08-12 02:20:56,15.08840723,0.0001085,53.2154,246.8099,89.1546,270.957,6.3124e-05,7.17e-06,0.0,0 STARLINK-5176,1 54053U 22136C   23224.09787539  .00000717  00000-0  63124-4 0  9997,2 54053  53.2154 246.8099 0001085  89.1546 270.9570 15.08840723 45326,6917.878,95.438,540.494,538.993,0.0
54053.0,STARLINK-5176,PAYLOAD,2023-08-12 07:07:05,15.08853174,0.0001261,53.2155,245.9178,99.7365,260.377,-0.00010274,-1.923e-05,0.0,0 STARLINK-5176,1 54053U 22136C   23224.29659036 -.00001923  00000-0 -10274-3 0  9998,2 54053  53.2155 245.9178 0001261  99.7365 260.3770 15.08853174 45359,6917.84,95.437,540.577,538.833,0.0
54053.0,STARLINK-5176,PAYLOAD,2023-08-13 00:36:20,15.0883944,0.0001034,53.2153,242.6466,89.9483,270.1628,0.00011878,1.603e-05,0.0,0 STARLINK-5176,1 54053U 22136C   23225.02523538  .00001603  00000-0  11878-3 0  9991,2 54053  53.2153 242.6466 0001034  89.9483 270.1628 15.08839440 45464,6917.882,95.438,540.462,539.032,0.0
54053.0,STARLINK-5176,PAYLOAD,2023-08-14 09:59:26,15.08843171,0.0001063,53.2156,236.401,88.0706,272.0408,8.203e-05,1.018e-05,0.0,0 STARLINK-5176,1 54053U 22136C   23226.41627488  .00001018  00000-0  82030-4 0  9993,2 54053  53.2156 236.4010 0001063  88.0706 272.0408 15.08843171 45679,6917.871,95.437,540.471,539.0,0.0
54053.0,STARLINK-5176,PAYLOAD,2023-08-15 17:47:08,15.08842207,0.0001088,53.2155,230.4535,87.7548,272.3569,9.465e-05,1.219e-05,0.0,0 STARLINK-5176,1 54053U 22136C   23227.74107514  .00001219  00000-0  94650-4 0  9997,2 54053  53.2155 230.4535 0001088  87.7548 272.3569 15.08842207 45873,6917.874,95.437,540.491,538.986,0.0
54053.0,STARLINK-5176,PAYLOAD,2023-08-16 23:59:28,15.08841764,0.00011,53.2154,224.8037,88.5267,271.5851,6.3904e-05,7.29e-06,0.0,0 STARLINK-5176,1 54053U 22136C   23228.99963520  .00000729  00000-0  63904-4 0  9995,2 54053  53.2154 224.8037 0001100  88.5267 271.5851 15.08841764 46062,6917.875,95.437,540.501,538.979,0.0
54053.0,STARLINK-5176,PAYLOAD,2023-08-18 03:01:02,15.08836711,0.0001168,53.2155,219.748,93.011,267.1015,1.4971e-05,-5e-07,0.0,0 STARLINK-5176,1 54053U 22136C   23230.12571959 -.00000050  00000-0  14971-4 0  9992,2 54053  53.2155 219.7480 0001168  93.0110 267.1015 15.08836711 46238,6917.89,95.438,540.563,538.947,0.0
54053.0,STARLINK-5176,PAYLOAD,2023-08-19 04:27:12,15.08835321,0.0001233,53.2158,214.9903,92.9224,267.1909,3.4767e-06,-2.33e-06,0.0,0 STARLINK-5176,1 54053U 22136C   23231.18556290 -.00000233  00000-0  34767-5 0  9999,2 54053  53.2158 214.9903 0001233  92.9224 267.1909 15.08835321 46390,6917.895,95.438,540.613,538.907,0.0
54053.0,STARLINK-5176,PAYLOAD,2023-08-20 09:04:09,15.0883439,0.0001252,53.216,209.6377,92.2479,267.8656,5.4581e-05,5.81e-06,0.0,0 STARLINK-5176,1 54053U 22136C   23232.37788673  .00000581  00000-0  54581-4 0  9993,2 54053  53.2160 209.6377 0001252  92.2479 267.8656 15.08834390 46576,6917.898,95.438,540.629,538.896,0.0
54053.0,STARLINK-5176,PAYLOAD,2023-08-21 10:30:19,15.08845427,0.0001256,53.216,204.8795,89.9941,270.1195,0.00012005,1.624e-05,0.0,0 STARLINK-5176,1 54053U 22136C   23233.43772063  .00001624  00000-0  12005-3 0  9990,2 54053  53.2160 204.8795 0001256  89.9941 270.1195 15.08845427 46734,6917.864,95.437,540.598,538.86,0.0
54053.0,STARLINK-5176,PAYLOAD,2023-08-22 03:59:34,15.0883778,0.0001314,53.2157,201.6073,87.458,272.6562,6.9481e-05,8.18e-06,0.0,0 STARLINK-5176,1 54053U 22136C   23234.16636906  .00000818  00000-0  69481-4 0  9991,2 54053  53.2157 201.6073 0001314  87.4580 272.6562 15.08837780 46841,6917.887,95.438,540.661,538.843,0.0
54053.0,STARLINK-5176,PAYLOAD,2023-08-23 03:50:20,15.08846008,0.0001476,53.2167,197.146,81.924,278.1919,5.9989e-05,6.67e-06,0.0,0 STARLINK-5176,1 54053U 22136C   23235.15996433  .00000667  00000-0  59989-4 0  9999,2 54053  53.2167 197.1460 0001476  81.9240 278.1919 15.08846008 46998,6917.862,95.437,540.748,538.706,0.0
54053.0,STARLINK-5176,PAYLOAD,2023-08-24 06:51:54,15.08843676,0.0001413,53.2163,192.0927,81.9373,278.1779,5.6758e-05,6.16e-06,0.0,0 STARLINK-5176,1 54053U 22136C   23236.28604394  .00000616  00000-0  56758-4 0  9991,2 54053  53.2163 192.0927 0001413  81.9373 278.1779 15.08843676 46682,6917.869,95.437,540.712,538.757,0.0
54053.0,STARLINK-5176,PAYLOAD,2023-08-25 06:42:41,15.08838676,0.0001531,53.2169,187.63,98.9664,261.1502,-1.039e-05,-4.53e-06,0.0,0 STARLINK-5176,1 54053U 22136C   23237.27964851 -.00000453  00000-0 -10390-4 0  9991,2 54053  53.2169 187.6300 0001531  98.9664 261.1502 15.08838676 47316,6917.884,95.438,540.809,538.69,0.0
54053.0,STARLINK-5176,PAYLOAD,2023-08-26 06:33:28,15.08838111,0.0001314,53.2171,183.1692,95.5894,264.5248,2.6344e-05,1.31e-06,0.0,0 STARLINK-5176,1 54053U 22136C   23238.27324857  .00000131  00000-0  26344-4 0  9995,2 54053  53.2171 183.1692 0001314  95.5894 264.5248 15.08838111 46981,6917.886,95.438,540.66,538.842,0.0
54053.0,STARLINK-5176,PAYLOAD,2023-08-27 01:38:06,15.0884683,0.0001648,53.2168,179.6024,124.7856,235.3291,-4.8908e-05,-1.067e-05,0.0,0 STARLINK-5176,1 54053U 22136C   23239.06812818 -.00001067  00000-0 -48908-4 0  9993,2 54053  53.2168 179.6024 0001648 124.7856 235.3291 15.08846830 47587,6917.86,95.437,540.865,538.584,0.0
54053.0,STARLINK-5176,PAYLOAD,2023-08-27 04:48:52,15.08842848,0.0001243,53.2165,179.0098,90.0097,270.1037,5.491e-05,5.86e-06,0.0,0 STARLINK-5176,1 54053U 22136C   23239.20060795  .00000586  00000-0  54910-4 0  9991,2 54053  53.2165 179.0098 0001243  90.0097 270.1037 15.08842848 47122,6917.872,95.437,540.597,538.877,0.0
54053.0,STARLINK-5176,PAYLOAD,2023-08-27 19:07:20,15.08842167,0.000113,53.2165,176.3341,90.7239,269.3883,0.00012605,1.719e-05,0.0,0 STARLINK-5176,1 54053U 22136C   23239.79676548  .00001719  00000-0  12605-3 0  9997,2 54053  53.2165 176.3341 0001130  90.7239 269.3883 15.08842167 47216,6917.874,95.437,540.52,538.957,0.0
54053.0,STARLINK-5176,PAYLOAD,2023-08-28 03:04:16,15.08843151,0.000123,53.2168,174.8466,100.5565,259.5566,4.4007e-05,4.13e-06,0.0,0 STARLINK-5176,1 54053U 22136C   23240.12797037  .00000413  00000-0  44007-4 0  9995,2 54053  53.2168 174.8466 0001230 100.5565 259.5566 15.08843151 47744,6917.871,95.437,540.587,538.885,0.0
54053.0,STARLINK-5176,PAYLOAD,2023-08-28 04:39:39,15.08844112,0.000123,53.2168,174.549,100.5498,259.5632,5.2501e-05,5.48e-06,0.0,0 STARLINK-5176,1 54053U 22136C   23240.19420939  .00000548  00000-0  52501-4 0  9993,2 54053  53.2168 174.5490 0001230 100.5498 259.5632 15.08844112 47273,6917.868,95.437,540.584,538.882,0.0
54053.0,STARLINK-5176,PAYLOAD,2023-08-28 23:44:17,15.08841874,0.0001386,53.2167,170.9804,104.5311,255.5835,2.7388e-06,-2.44e-06,0.0,0 STARLINK-5176,1 54053U 22136C   23240.98909397 -.00000244  00000-0  27388-5 0  9990,2 54053  53.2167 170.9804 0001386 104.5311 255.5835 15.08841874 47870,6917.875,95.437,540.698,538.781,0.0
